OBJECT_NAME,OBJECT_ID,EPOCH,MEAN_MOTION,ECCENTRICITY,INCLINATION,RA_OF_ASC_NODE,ARG_OF_PERICENTER,MEAN_ANOMALY,EPHEMERIS_TYPE,CLASSIFICATION_TYPE,NORAD_CAT_ID,ELEMENT_SET_NO,REV_AT_EPOCH,BSTAR,MEAN_MOTION_DOT,MEAN_MOTION_DDOT
TDRS 13,2017-047A,2026-06-28T22:40:12.840384,1.00272714,.00151611,3.4544,3.0220,107.7623,134.8813,0,U,42915,999,3246,0,-.9E-6,0
QZS-3 (MICHIBIKI-3),2017-048A,2026-06-28T23:19:39.556704,1.00270979,.00023041,0.0716,143.4274,311.4120,299.1815,0,U,42917,999,3237,0,-.336E-5,0
AMAZONAS 5,2017-053A,2026-06-28T10:27:28.774080,1.00270587,.00018918,0.0329,323.9564,98.6894,309.7523,0,U,42934,999,3215,0,-.271E-5,0
ASIASAT 9,2017-057A,2026-06-28T11:19:42.685248,1.00264449,.00022778,0.0436,58.5015,33.6424,116.5142,0,U,42942,999,3197,0,0,0
INTELSAT 37E (IS-37E),2017-059A,2026-06-28T20:55:40.488960,1.00269014,.00029093,0.0247,17.1245,84.0079,111.7491,0,U,42950,999,3218,0,0,0
BSAT-4A,2017-059B,2026-06-28T16:24:13.910976,1.00270245,.00042147,0.0376,23.1916,53.2312,196.2331,0,U,42951,999,3191,0,-.339E-5,0
QZS-4 (MICHIBIKI-4),2017-062A,2026-06-28T18:06:26.754912,1.00296281,.07466782,40.1017,343.3383,268.2979,74.8596,0,U,42965,999,3191,0,-.341E-5,0
SES-11 (ECHOSTAR 105),2017-063A,2026-06-28T23:54:50.097888,1.00271807,.00030115,0.0271,315.1178,140.1678,75.5640,0,U,42967,999,3184,0,-.78E-6,0
KOREASAT 5A,2017-067A,2026-06-28T09:34:34.578048,1.00272663,.00010163,0.0129,5.1278,93.4814,74.6888,0,U,42984,999,3164,0,-.347E-5,0
ALCOMSAT 1,2017-078A,2026-06-28T22:36:23.967648,1.00269409,.00026508,0.0241,38.2200,56.3523,136.7590,0,U,43039,999,3141,0,0,0
SBIRS GEO-3 (USA 282),2018-009A,2026-06-28T20:15:23.340096,1.00272765,.0002313,2.1919,12.6510,78.4440,330.2862,0,U,43162,999,3096,0,.138E-5,0
AL YAH 3,2018-012A,2026-06-28T22:37:46.336224,1.00271885,.00041793,1.5812,82.9807,12.1737,141.2077,0,U,43174,999,3096,0,-.146E-5,0
SES-14,2018-012B,2026-06-28T20:47:19.049280,1.00271609,.00012926,0.0142,20.1915,73.3366,87.7596,0,U,43175,999,714,0,-.267E-5,0
GOES 17,2018-022A,2026-06-28T22:18:00.844416,1.00272408,.00007259,0.9658,85.5236,26.0161,50.4789,0,U,43226,999,3054,0,-.172E-5,0
HISPASAT 30W-6,2018-023A,2026-06-28T22:52:35.082048,1.00271512,.00059564,0.0435,44.1462,35.3144,150.7228,0,U,43228,999,3052,0,-.205E-5,0
SUPERBIRD-B3,2018-033A,2026-06-28T20:04:24.393216,1.00272453,.00012726,0.0159,10.2733,79.8079,289.9523,0,U,43271,999,3017,0,-.81E-6,0
HYLAS 4,2018-033B,2026-06-28T15:43:10.259904,1.00266331,.00011477,0.0265,21.9198,81.0110,16.0875,0,U,43272,999,3018,0,0,0
IRNSS-1I,2018-035A,2026-06-28T19:05:38.535360,1.00277388,.0017671,28.7805,74.0157,182.6115,1.5908,0,U,43286,999,3019,0,.66E-6,0
USA 283,2018-036A,2026-06-27T17:24:50.474880,1.00270887,.0000306,0.0104,356.5956,111.8147,202.7533,0,U,43339,999,2539,0,0,0
COSMOS 2526,2018-037A,2026-06-28T09:08:38.880384,1.00271912,.00011432,0.0321,44.6778,207.2858,289.7288,0,U,43432,999,3007,0,-.333E-5,0
APSTAR-6C,2018-041A,2026-06-28T01:42:51.530400,1.00270715,.0000648,0.0210,0.2829,14.2345,61.3809,0,U,43450,999,2992,0,-.306E-5,0
BANGABANDHUSAT-1,2018-044A,2026-06-28T19:52:10.566048,1.00272769,.00021836,0.0158,77.3250,24.8138,231.9260,0,U,43463,999,2982,0,-.351E-5,0
SES-12,2018-049A,2026-06-28T20:11:38.510880,1.00272058,.00003352,0.0120,13.9037,278.6140,22.3225,0,U,43488,999,2953,0,-.258E-5,0
FENGYUN 2H,2018-050A,2026-06-28T23:06:10.850112,1.00269771,.00017328,3.0612,78.9433,121.8190,142.1582,0,U,43491,999,2955,0,-.121E-5,0
BEIDOU-2 IGSO-7,2018-057A,2026-06-26T12:08:29.940576,1.00249004,.0104768,55.1970,162.9757,237.9790,164.9478,0,U,43539,999,2922,0,-.28E-6,0
TELSTAR 19V,2018-059A,2026-06-28T20:42:49.480416,1.00270791,.00030916,0.0128,63.8413,53.6537,47.1593,0,U,43562,999,2926,0,-.268E-5,0
TELKOM 4 (MERAH PUTIH),2018-064A,2026-06-28T23:14:17.572416,1.00271507,.00017356,0.0224,74.6027,45.9513,253.0743,0,U,43587,999,2899,0,-.333E-5,0
TELSTAR 18V,2018-069A,2026-06-28T21:40:13.812960,1.00269278,.00021086,0.0130,314.2254,132.0700,293.7388,0,U,43611,999,2875,0,-.283E-5,0
AZERSPACE 2 (IS-38),2018-074A,2026-06-28T22:56:19.295232,1.00269377,.00017171,0.0251,13.4747,85.7116,207.0523,0,U,43632,999,2856,0,0,0
HORIZONS-3E,2018-074B,2026-06-28T14:59:20.327712,1.00271069,.00004359,0.0211,191.0210,96.3678,23.1753,0,U,43633,999,2845,0,-.19E-6,0
AEHF-4 (USA 288),2018-079A,2026-06-28T22:24:15.245856,1.00269339,.00599834,1.4357,4.9515,355.8246,184.7618,0,U,43651,999,2841,0,-.264E-5,0
BEIDOU-3 G1,2018-085A,2026-06-28T21:46:05.750400,1.00271119,.00085719,2.8978,97.0619,352.3271,314.0542,0,U,43683,999,2817,0,-.101E-5,0
