TDRS 13                 
1 42915U 17047A   26179.94459306 -.00000090  00000+0  00000+0 0  9993
2 42915   3.4544   3.0220 0015161 107.7623 134.8813  1.00272714 32467
QZS-3 (MICHIBIKI-3)     
1 42917U 17048A   26179.97198561 -.00000336  00000+0  00000+0 0  9995
2 42917   0.0716 143.4274 0002304 311.4120 299.1815  1.00270979 32370
AMAZONAS 5              
1 42934U 17053A   26179.43574970 -.00000271  00000+0  00000+0 0  9991
2 42934   0.0329 323.9564 0001891  98.6894 309.7523  1.00270587 32153
ASIASAT 9               
1 42942U 17057A   26179.47202182  .00000000  00000+0  00000+0 0  9990
2 42942   0.0436  58.5015 0002277  33.6424 116.5142  1.00264449 31970
INTELSAT 37E (IS-37E)   
1 42950U 17059A   26179.87199640  .00000000  00000+0  00000+0 0  9999
2 42950   0.0247  17.1245 0002909  84.0079 111.7491  1.00269014 32184
BSAT-4A                 
1 42951U 17059B   26179.68349434 -.00000339  00000+0  00000+0 0  9993
2 42951   0.0376  23.1916 0004214  53.2312 196.2331  1.00270245 31918
QZS-4 (MICHIBIKI-4)     
1 42965U 17062A   26179.75447633 -.00000341  00000+0  00000+0 0  9993
2 42965  40.1017 343.3383 0746678 268.2979  74.8596  1.00296281 31911
SES-11 (ECHOSTAR 105)   
1 42967U 17063A   26179.99641317 -.00000078  00000+0  00000+0 0  9994
2 42967   0.0271 315.1178 0003011 140.1678  75.5640  1.00271807 31847
KOREASAT 5A             
1 42984U 17067A   26179.39901132 -.00000347  00000+0  00000+0 0  9994
2 42984   0.0129   5.1278 0001016  93.4814  74.6888  1.00272663 31643
ALCOMSAT 1              
1 43039U 17078A   26179.94194407  .00000000  00000+0  00000+0 0  9993
2 43039   0.0241  38.2200 0002650  56.3523 136.7590  1.00269409 31411
SBIRS GEO-3 (USA 282)   
1 43162U 18009A   26179.84402014  .00000138  00000+0  00000+0 0  9992
2 43162   2.1919  12.6510 0002313  78.4440 330.2862  1.00272765 30963
AL YAH 3                
1 43174U 18012A   26179.94289741 -.00000146  00000+0  00000+0 0  9990
2 43174   1.5812  82.9807 0004179  12.1737 141.2077  1.00271885 30966
SES-14                  
1 43175U 18012B   26179.86619270 -.00000267  00000+0  00000+0 0  9990
2 43175   0.0142  20.1915 0001292  73.3366  87.7596  1.00271609  7149
GOES 17                 
1 43226U 18022A   26179.92917644 -.00000172  00000+0  00000+0 0  9996
2 43226   0.9658  85.5236 0000725  26.0161  50.4789  1.00272408 30545
HISPASAT 30W-6          
1 43228U 18023A   26179.95318382 -.00000205  00000+0  00000+0 0  9993
2 43228   0.0435  44.1462 0005956  35.3144 150.7228  1.00271512 30523
SUPERBIRD-B3            
1 43271U 18033A   26179.83639344 -.00000081  00000+0  00000+0 0  9995
2 43271   0.0159  10.2733 0001272  79.8079 289.9523  1.00272453 30175
HYLAS 4                 
1 43272U 18033B   26179.65497986  .00000000  00000+0  00000+0 0  9990
2 43272   0.0265  21.9198 0001147  81.0110  16.0875  1.00266331 30188
IRNSS-1I                
1 43286U 18035A   26179.79558490  .00000066  00000+0  00000+0 0  9992
2 43286  28.7805  74.0157 0017671 182.6115   1.5908  1.00277388 30197
USA 283                 
1 43339U 18036A   26178.72558420  .00000000  00000+0  00000+0 0  9995
2 43339   0.0104 356.5956 0000306 111.8147 202.7533  1.00270887 25394
COSMOS 2526             
1 43432U 18037A   26179.38100556 -.00000333  00000+0  00000+0 0  9996
2 43432   0.0321  44.6778 0001143 207.2858 289.7288  1.00271912 30078
APSTAR-6C               
1 43450U 18041A   26179.07142975 -.00000306  00000+0  00000+0 0  9998
2 43450   0.0210   0.2829 0000648  14.2345  61.3809  1.00270715 29921
BANGABANDHUSAT-1        
1 43463U 18044A   26179.82790007 -.00000351  00000+0  00000+0 0  9993
2 43463   0.0158  77.3250 0002183  24.8138 231.9260  1.00272769 29828
SES-12                  
1 43488U 18049A   26179.84141795 -.00000258  00000+0  00000+0 0  9997
2 43488   0.0120  13.9037 0000335 278.6140  22.3225  1.00272058 29534
FENGYUN 2H              
1 43491U 18050A   26179.96262558 -.00000121  00000+0  00000+0 0  9996
2 43491   3.0612  78.9433 0001732 121.8190 142.1582  1.00269771 29551
BEIDOU-2 IGSO-7         
1 43539U 18057A   26177.50590209 -.00000028  00000+0  00000+0 0  9997
2 43539  55.1970 162.9757 0104768 237.9790 164.9478  1.00249004 29227
TELSTAR 19V             
1 43562U 18059A   26179.86307269 -.00000268  00000+0  00000+0 0  9994
2 43562   0.0128  63.8413 0003091  53.6537  47.1593  1.00270791 29265
TELKOM 4 (MERAH PUTIH)  
1 43587U 18064A   26179.96825894 -.00000333  00000+0  00000+0 0  9990
2 43587   0.0224  74.6027 0001735  45.9513 253.0743  1.00271507 28991
TELSTAR 18V             
1 43611U 18069A   26179.90293765 -.00000283  00000+0  00000+0 0  9997
2 43611   0.0130 314.2254 0002108 132.0700 293.7388  1.00269278 28753
AZERSPACE 2 (IS-38)     
1 43632U 18074A   26179.95577888  .00000000  00000+0  00000+0 0  9998
2 43632   0.0251  13.4747 0001717  85.7116 207.0523  1.00269377 28563
HORIZONS-3E             
1 43633U 18074B   26179.62454083 -.00000019  00000+0  00000+0 0  9995
2 43633   0.0211 191.0210 0000435  96.3678  23.1753  1.00271069 28456
AEHF-4 (USA 288)        
1 43651U 18079A   26179.93350979 -.00000264  00000+0  00000+0 0  9995
2 43651   1.4357   4.9515 0059983 355.8246 184.7618  1.00269339 28415
BEIDOU-3 G1             
1 43683U 18085A   26179.90701100 -.00000101  00000+0  00000+0 0  9990
2 43683   2.8978  97.0619 0008571 352.3271 314.0542  1.00271119 28175
